AO-123
1 61781U 24199AY  26187.12500926  .00008075  00000-0  23241-3 0  9992
2 61781  97.2975  55.6257 0012144 235.9044 124.1049 15.35962149136830
JINJUSat 1B
1 63210U 25052A   26186.28284404  .00027718  00000-0  83951-3 0  9995
2 63210  97.3977  83.0668 0004306  53.4289 306.7350 15.34121638 72873
NUSHSAT 1
1 63211U 25052B   26186.94779331  .00024141  00000-0  67271-3 0  9991
2 63211  97.3954  84.3652 0004067  59.0293 301.1350 15.36771884 73020
TEVEL2-4
1 63213U 25052D   26186.24043706  .00031346  00000-0  91379-3 0  9997
2 63213  97.3872  82.6666 0004352  70.8650 289.3064 15.35303959 72887
TEVEL2-5
1 63214U 25052E   26186.39338315  .00028273  00000-0  82946-3 0  9992
2 63214  97.3873  82.7629 0004363  72.3429 287.8291 15.35125326 72900
TEVEL2-6
1 63215U 25052F   26187.25352612  .00020103  00000-0  59119-3 0  9995
2 63215  97.3877  83.6095 0004121  74.3396 285.8302 15.35119295 73033
TEVEL2-1
1 63217U 25052H   26187.15891383  .00018483  00000-0  55360-3 0  9991
2 63217  97.3845  83.1159 0004763  78.4385 281.7392 15.34555105 73005
TEVEL2-3
1 63218U 25052J   26186.95722170  .00020249  00000-0  60514-3 0  9996
2 63218  97.3854  82.9383 0004539  80.4849 279.6907 15.34608768 72978
TEVEL2-2
1 63219U 25052K   26186.96348210  .00019683  00000-0  58925-3 0  9990
2 63219  97.3848  82.9231 0004795  79.3040 280.8743 15.34558685 72972
TEVEL2-9
1 63237U 25052AD  26187.16133809  .00017138  00000-0  54690-3 0  9997
2 63237  97.3914  82.4548 0008221  81.8124 278.4050 15.32531668 72931
TEVEL2-7
1 63238U 25052AE  26186.22636433  .00026511  00000-0  85258-3 0  9994
2 63238  97.3915  81.4293 0008312  84.3933 275.8257 15.32192740 72783
TEVEL2-8
1 63239U 25052AF  26186.23479095  .00026777  00000-0  86147-3 0  9997
2 63239  97.3912  81.4140 0008320  84.8446 275.3745 15.32178382 72788
SPIRONE
1 66657U 25274H   26186.74544469  .00003469  00000-0  33353-3 0  9998
2 66657  97.7474 115.7716 0010809 318.9961  41.0445 14.93627695 32996
K-HERO
1 66660U 25274L   26186.81186312  .00002840  00000-0  27110-3 0  9995
2 66660  97.7480 116.0120 0012796 322.3845  37.6479 14.94037260 33013
SNUGLITE-III DURI
1 66661U 25274M   26186.33037477  .00002636  00000-0  25186-3 0  9994
2 66661  97.7473 115.5578 0013585 324.5372  35.4944 14.94067881 32949
SAKHACUBE-CHOLBON
1 67290U 25313AU  26187.18821336  .00009322  00000-0  37322-3 0  9990
2 67290  97.3922 261.9890 0007586 289.5365  70.5053 15.25251316 28873
RS95S (QMR-KWT-2)
1 67291U 25313AV  26187.15810737  .00014617  00000-0  55653-3 0  9991
2 67291  97.3920 262.1761 0007251 285.3364  74.7073 15.26815669 28881
Ten-Koh2
1 68261U 25241B   26186.83567606  .00006549  00000-0  27920-3 0  9998
2 68261  51.6632 230.8691 0004804 198.7671 161.3131 15.24114035 17754
JACK-002
1 68417U 26067B   26186.86369056  .00007110  00000-0  33673-3 0  9997
2 68417  97.4577 145.2265 0002122 150.8637 209.2716 15.19635798 14780
DISCO 2
1 68431U 26067R   26186.88846015  .00009793  00000-0  46593-3 0  9994
2 68431  97.4612 145.2395 0000479  17.7855 342.3397 15.19375406 14787
HADES-SA (SpinnyONE)
1 68446U 26067AG  26186.85977878  .00020143  00000-0  94259-3 0  9993
2 68446  97.4410 144.8845 0007378  33.2964 326.8733 15.19755922 14767
PARUS-6U1
1 68456U 26067AS  26186.78210234  .00007593  00000-0  37945-3 0  9995
2 68456  97.4561 144.8621 0005858  20.5528 339.5940 15.17726656 14753
SAL-E
1 68458U 26067AU  26186.84009066  .00009388  00000-0  46398-3 0  9999
2 68458  97.4489 144.8450 0006376  29.0890 331.0698 15.18045389 14762
FSI-SAT 2
1 68792U 26088A   26186.87856110  .00005095  00000-0  34349-3 0  9990
2 68792  97.5098 335.6722 0015425  48.5598 311.6952 15.06995910 11101
OrigamiSat 2
1 68795U 26088D   26186.39845058  .00018759  00000-0  11795-2 0  9999
2 68795  97.5100 335.3964 0014975  21.7281 338.4580 15.09178920 11048
ARICA 2
1 68796U 26088E   26186.86730272  .00004597  00000-0  29727-3 0  9993
2 68796  97.5091 335.8305 0015942  20.6304 339.5565 15.08584699 11117
WASEDA-SAT-ZERO-II
1 68797U 26088F   26186.39578238  .00008985  00000-0  57262-3 0  9994
2 68797  97.5087 335.3842 0015704  21.6133 338.5756 15.08859778 11047
MANGARO-II-Piscus
1 68798U 26088G   26186.98177441  .00004124  00000-0  26429-3 0  9993
2 68798  97.5092 335.9917 0019324  21.2520 338.9507 15.08922935 11135
